STARLINK-35716          
1 67191U 25303AE  25351.60835648 -.00002699  85337-5  00000+0 0  9990
2 67191  43.0100  69.0834 0011500 323.6500   9.4800 16.01284782    11
STARLINK-36182          
1 67192U 25304A   26009.91668981  .00025709  00000+0  58871-3 0  9998
2 67192  70.0001 328.6042 0003517 276.3582  34.4512 15.42700184  4969
STARLINK-36279          
1 67193U 25304B   26009.64584391  .00083724  00000+0  13471-2 0  9998
2 67193  69.9998 329.2057 0003008 265.2618  94.8225 15.52565374  4891
STARLINK-36284          
1 67194U 25304C   26009.91668981  .00026088  00000+0  59765-3 0  9994
2 67194  70.0000 328.5009 0002911 265.0789 135.7761 15.42684888  4999
STARLINK-36291          
1 67195U 25304D   26009.64515782  .00084683  00000+0  13624-2 0  9993
2 67195  69.9999 329.2031 0003126 269.5001  90.5828 15.52564524  4898
STARLINK-36239          
1 67196U 25304E   26009.91668981  .00023170  00000+0  53088-3 0  9997
2 67196  70.0001 328.5526 0002582 270.0783  85.6946 15.42713512  4995
STARLINK-36283          
1 67197U 25304F   26009.64412825  .00072140  00000+0  11623-2 0  9991
2 67197  69.9999 329.1996 0003018 266.3109  93.7733 15.52577408  4898
STARLINK-36267          
1 67198U 25304G   26009.25799168 -.00068368  00000+0 -11366-2 0  9990
2 67198  69.9997 330.2597 0003350 257.8796 102.2015 15.52061219  4801
STARLINK-36268          
1 67199U 25304H   26009.64378656  .00078616  00000+0  12659-2 0  9990
2 67199  69.9999 329.1980 0003076 270.4791  89.6044 15.52564798  4897
STARLINK-36270          
1 67200U 25304J   26009.91668981  .00042173  00000+0  96248-3 0  9992
2 67200  70.0000 328.5778 0003306 269.4517  63.3899 15.42670577  4994
STARLINK-36262          
1 67201U 25304K   26009.91668981  .00018855  00000+0  43292-3 0  9994
2 67201  70.0001 328.5265 0003135 262.7711 115.0157 15.42710806  4991
STARLINK-36263          
1 67202U 25304L   26009.91668981 -.01715404  00000+0 -42149-1 0  9990
2 67202  70.0002 328.4751 0003838 260.1200 162.0373 15.43944928  4994
