CCSDS_OMM_VERS = 2.0
CREATION_DATE  = 
ORIGINATOR     = 

OBJECT_NAME    = STARLINK-35716
OBJECT_ID      = 2025-303AE
CENTER_NAME    = EARTH
REF_FRAME      = TEME
TIME_SYSTEM    = UTC
MEAN_ELEMENT_THEORY = SGP/SGP4

EPOCH          = 2025-12-17T14:36:01.999872
MEAN_MOTION    = 16.01284782
ECCENTRICITY   = .00115
INCLINATION    = 43.0100
RA_OF_ASC_NODE = 69.0834
ARG_OF_PERICENTER = 323.6500
MEAN_ANOMALY   = 9.4800

EPHEMERIS_TYPE = 0
CLASSIFICATION_TYPE = U
NORAD_CAT_ID   = 67191
ELEMENT_SET_NO = 999
REV_AT_EPOCH   = 1
BSTAR          = 0
MEAN_MOTION_DOT = -.2699E-4
MEAN_MOTION_DDOT = .8533731E-5

CCSDS_OMM_VERS = 2.0
CREATION_DATE  = 
ORIGINATOR     = 

OBJECT_NAME    = STARLINK-36182
OBJECT_ID      = 2025-304A
CENTER_NAME    = EARTH
REF_FRAME      = TEME
TIME_SYSTEM    = UTC
MEAN_ELEMENT_THEORY = SGP/SGP4

EPOCH          = 2026-01-09T22:00:01.999584
MEAN_MOTION    = 15.42700184
ECCENTRICITY   = .00035173
INCLINATION    = 70.0001
RA_OF_ASC_NODE = 328.6042
ARG_OF_PERICENTER = 276.3582
MEAN_ANOMALY   = 34.4512

EPHEMERIS_TYPE = 0
CLASSIFICATION_TYPE = U
NORAD_CAT_ID   = 67192
ELEMENT_SET_NO = 999
REV_AT_EPOCH   = 496
BSTAR          = .58870891E-3
MEAN_MOTION_DOT = .25709E-3
MEAN_MOTION_DDOT = 0

CCSDS_OMM_VERS = 2.0
CREATION_DATE  = 
ORIGINATOR     = 

OBJECT_NAME    = STARLINK-36279
OBJECT_ID      = 2025-304B
CENTER_NAME    = EARTH
REF_FRAME      = TEME
TIME_SYSTEM    = UTC
MEAN_ELEMENT_THEORY = SGP/SGP4

EPOCH          = 2026-01-09T15:30:00.913824
MEAN_MOTION    = 15.52565374
ECCENTRICITY   = .00030089
INCLINATION    = 69.9998
RA_OF_ASC_NODE = 329.2057
ARG_OF_PERICENTER = 265.2618
MEAN_ANOMALY   = 94.8225

EPHEMERIS_TYPE = 0
CLASSIFICATION_TYPE = U
NORAD_CAT_ID   = 67193
ELEMENT_SET_NO = 999
REV_AT_EPOCH   = 489
BSTAR          = .13471296E-2
MEAN_MOTION_DOT = .83724E-3
MEAN_MOTION_DDOT = 0

CCSDS_OMM_VERS = 2.0
CREATION_DATE  = 
ORIGINATOR     = 

OBJECT_NAME    = STARLINK-36284
OBJECT_ID      = 2025-304C
CENTER_NAME    = EARTH
REF_FRAME      = TEME
TIME_SYSTEM    = UTC
MEAN_ELEMENT_THEORY = SGP/SGP4

EPOCH          = 2026-01-09T22:00:01.999584
MEAN_MOTION    = 15.42684888
ECCENTRICITY   = .00029112
INCLINATION    = 70.0000
RA_OF_ASC_NODE = 328.5009
ARG_OF_PERICENTER = 265.0789
MEAN_ANOMALY   = 135.7761

EPHEMERIS_TYPE = 0
CLASSIFICATION_TYPE = U
NORAD_CAT_ID   = 67194
ELEMENT_SET_NO = 999
REV_AT_EPOCH   = 499
BSTAR          = .59765034E-3
MEAN_MOTION_DOT = .26088E-3
MEAN_MOTION_DDOT = 0

CCSDS_OMM_VERS = 2.0
CREATION_DATE  = 
ORIGINATOR     = 

OBJECT_NAME    = STARLINK-36291
OBJECT_ID      = 2025-304D
CENTER_NAME    = EARTH
REF_FRAME      = TEME
TIME_SYSTEM    = UTC
MEAN_ELEMENT_THEORY = SGP/SGP4

EPOCH          = 2026-01-09T15:29:01.635648
MEAN_MOTION    = 15.52564524
ECCENTRICITY   = .00031266
INCLINATION    = 69.9999
RA_OF_ASC_NODE = 329.2031
ARG_OF_PERICENTER = 269.5001
MEAN_ANOMALY   = 90.5828

EPHEMERIS_TYPE = 0
CLASSIFICATION_TYPE = U
NORAD_CAT_ID   = 67195
ELEMENT_SET_NO = 999
REV_AT_EPOCH   = 489
BSTAR          = .13623981E-2
MEAN_MOTION_DOT = .84683E-3
MEAN_MOTION_DDOT = 0

CCSDS_OMM_VERS = 2.0
CREATION_DATE  = 
ORIGINATOR     = 

OBJECT_NAME    = STARLINK-36239
OBJECT_ID      = 2025-304E
CENTER_NAME    = EARTH
REF_FRAME      = TEME
TIME_SYSTEM    = UTC
MEAN_ELEMENT_THEORY = SGP/SGP4

EPOCH          = 2026-01-09T22:00:01.999584
MEAN_MOTION    = 15.42713512
ECCENTRICITY   = .00025824
INCLINATION    = 70.0001
RA_OF_ASC_NODE = 328.5526
ARG_OF_PERICENTER = 270.0783
MEAN_ANOMALY   = 85.6946

EPHEMERIS_TYPE = 0
CLASSIFICATION_TYPE = U
NORAD_CAT_ID   = 67196
ELEMENT_SET_NO = 999
REV_AT_EPOCH   = 499
BSTAR          = .53087635E-3
MEAN_MOTION_DOT = .2317E-3
MEAN_MOTION_DDOT = 0

CCSDS_OMM_VERS = 2.0
CREATION_DATE  = 
ORIGINATOR     = 

OBJECT_NAME    = STARLINK-36283
OBJECT_ID      = 2025-304F
CENTER_NAME    = EARTH
REF_FRAME      = TEME
TIME_SYSTEM    = UTC
MEAN_ELEMENT_THEORY = SGP/SGP4

EPOCH          = 2026-01-09T15:27:32.680800
MEAN_MOTION    = 15.52577408
ECCENTRICITY   = .00030189
INCLINATION    = 69.9999
RA_OF_ASC_NODE = 329.1996
ARG_OF_PERICENTER = 266.3109
MEAN_ANOMALY   = 93.7733

EPHEMERIS_TYPE = 0
CLASSIFICATION_TYPE = U
NORAD_CAT_ID   = 67197
ELEMENT_SET_NO = 999
REV_AT_EPOCH   = 489
BSTAR          = .11623076E-2
MEAN_MOTION_DOT = .7214E-3
MEAN_MOTION_DDOT = 0

CCSDS_OMM_VERS = 2.0
CREATION_DATE  = 
ORIGINATOR     = 

OBJECT_NAME    = STARLINK-36267
OBJECT_ID      = 2025-304G
CENTER_NAME    = EARTH
REF_FRAME      = TEME
TIME_SYSTEM    = UTC
MEAN_ELEMENT_THEORY = SGP/SGP4

EPOCH          = 2026-01-09T06:11:30.481152
MEAN_MOTION    = 15.52061219
ECCENTRICITY   = .00033508
INCLINATION    = 69.9997
RA_OF_ASC_NODE = 330.2597
ARG_OF_PERICENTER = 257.8796
MEAN_ANOMALY   = 102.2015

EPHEMERIS_TYPE = 0
CLASSIFICATION_TYPE = U
NORAD_CAT_ID   = 67198
ELEMENT_SET_NO = 999
REV_AT_EPOCH   = 480
BSTAR          = -.11366414E-2
MEAN_MOTION_DOT = -.68368E-3
MEAN_MOTION_DDOT = 0

CCSDS_OMM_VERS = 2.0
CREATION_DATE  = 
ORIGINATOR     = 

OBJECT_NAME    = STARLINK-36268
OBJECT_ID      = 2025-304H
CENTER_NAME    = EARTH
REF_FRAME      = TEME
TIME_SYSTEM    = UTC
MEAN_ELEMENT_THEORY = SGP/SGP4

EPOCH          = 2026-01-09T15:27:03.158784
MEAN_MOTION    = 15.52564798
ECCENTRICITY   = .00030768
INCLINATION    = 69.9999
RA_OF_ASC_NODE = 329.1980
ARG_OF_PERICENTER = 270.4791
MEAN_ANOMALY   = 89.6044

EPHEMERIS_TYPE = 0
CLASSIFICATION_TYPE = U
NORAD_CAT_ID   = 67199
ELEMENT_SET_NO = 999
REV_AT_EPOCH   = 489
BSTAR          = .1265938E-2
MEAN_MOTION_DOT = .78616E-3
MEAN_MOTION_DDOT = 0

CCSDS_OMM_VERS = 2.0
CREATION_DATE  = 
ORIGINATOR     = 

OBJECT_NAME    = STARLINK-36270
OBJECT_ID      = 2025-304J
CENTER_NAME    = EARTH
REF_FRAME      = TEME
TIME_SYSTEM    = UTC
MEAN_ELEMENT_THEORY = SGP/SGP4

EPOCH          = 2026-01-09T22:00:01.999584
MEAN_MOTION    = 15.42670577
ECCENTRICITY   = .00033062
INCLINATION    = 70.0000
RA_OF_ASC_NODE = 328.5778
ARG_OF_PERICENTER = 269.4517
MEAN_ANOMALY   = 63.3899

EPHEMERIS_TYPE = 0
CLASSIFICATION_TYPE = U
NORAD_CAT_ID   = 67200
ELEMENT_SET_NO = 999
REV_AT_EPOCH   = 499
BSTAR          = .96247743E-3
MEAN_MOTION_DOT = .42173E-3
MEAN_MOTION_DDOT = 0

CCSDS_OMM_VERS = 2.0
CREATION_DATE  = 
ORIGINATOR     = 

OBJECT_NAME    = STARLINK-36262
OBJECT_ID      = 2025-304K
CENTER_NAME    = EARTH
REF_FRAME      = TEME
TIME_SYSTEM    = UTC
MEAN_ELEMENT_THEORY = SGP/SGP4

EPOCH          = 2026-01-09T22:00:01.999584
MEAN_MOTION    = 15.42710806
ECCENTRICITY   = .0003135
INCLINATION    = 70.0001
RA_OF_ASC_NODE = 328.5265
ARG_OF_PERICENTER = 262.7711
MEAN_ANOMALY   = 115.0157

EPHEMERIS_TYPE = 0
CLASSIFICATION_TYPE = U
NORAD_CAT_ID   = 67201
ELEMENT_SET_NO = 999
REV_AT_EPOCH   = 499
BSTAR          = .43291623E-3
MEAN_MOTION_DOT = .18855E-3
MEAN_MOTION_DDOT = 0

CCSDS_OMM_VERS = 2.0
CREATION_DATE  = 
ORIGINATOR     = 

OBJECT_NAME    = STARLINK-36263
OBJECT_ID      = 2025-304L
CENTER_NAME    = EARTH
REF_FRAME      = TEME
TIME_SYSTEM    = UTC
MEAN_ELEMENT_THEORY = SGP/SGP4

EPOCH          = 2026-01-09T22:00:01.999584
MEAN_MOTION    = 15.43944928
ECCENTRICITY   = .00038382
INCLINATION    = 70.0002
RA_OF_ASC_NODE = 328.4751
ARG_OF_PERICENTER = 260.1200
MEAN_ANOMALY   = 162.0373

EPHEMERIS_TYPE = 0
CLASSIFICATION_TYPE = U
NORAD_CAT_ID   = 67202
ELEMENT_SET_NO = 999
REV_AT_EPOCH   = 499
BSTAR          = -.42148729E-1
MEAN_MOTION_DOT = -.1715404E-1
MEAN_MOTION_DDOT = 0

